[{"OBJECT_NAME":"ICEYE-X4","OBJECT_ID":"2019-038D","EPOCH":"2026-03-09T23:53:58.416000","MEAN_MOTION":15.26985132,"ECCENTRICITY":0.00122769,"INCLINATION":97.8888,"RA_OF_ASC_NODE":96.1923,"ARG_OF_PERICENTER":293.9914,"MEAN_ANOMALY":66.0038,"EPHEMERIS_TYPE":0,"CLASSIFICATION_TYPE":"U","NORAD_CAT_ID":44390,"ELEMENT_SET_NO":999,"REV_AT_EPOCH":36665,"BSTAR":0.00049915294,"MEAN_MOTION_DOT":0.00013179,"MEAN_MOTION_DDOT":0},{"OBJECT_NAME":"STARLINK-30142","OBJECT_ID":"2023-079P","EPOCH":"2026-03-09T03:35:01.920192","MEAN_MOTION":15.27563421,"ECCENTRICITY":9.284e-5,"INCLINATION":42.9981,"RA_OF_ASC_NODE":106.8569,"ARG_OF_PERICENTER":278.1929,"MEAN_ANOMALY":81.8818,"EPHEMERIS_TYPE":0,"CLASSIFICATION_TYPE":"U","NORAD_CAT_ID":56836,"ELEMENT_SET_NO":999,"REV_AT_EPOCH":15284,"BSTAR":-2.5056361e-5,"MEAN_MOTION_DOT":-9.51e-6,"MEAN_MOTION_DDOT":0}]
